{
    "links": {
        "self": "http://www.neowsapp.com/rest/v1/neo/3843818?api_key=iIulBulltgU6a56xZRHN4H3l9WmuAYTsLGpBGhQ2"
    },
    "id": "3843818",
    "neo_reference_id": "3843818",
    "name": "(2019 RF2)",
    "designation": "2019 RF2",
    "nasa_jpl_url": "http://ssd.jpl.nasa.gov/sbdb.cgi?sstr=3843818",
    "absolute_magnitude_h": 26.6,
    "estimated_diameter": {
        "kilometers": {
            "estimated_diameter_min": 0.0127219879,
            "estimated_diameter_max": 0.0284472297
        },
        "meters": {
            "estimated_diameter_min": 12.7219878539,
            "estimated_diameter_max": 28.4472296503
        },
        "miles": {
            "estimated_diameter_min": 0.0079050743,
            "estimated_diameter_max": 0.0176762835
        },
        "feet": {
            "estimated_diameter_min": 41.7388066307,
            "estimated_diameter_max": 93.330808926
        }
    },
    "is_potentially_hazardous_asteroid": false,
    "close_approach_data": [
        {
            "close_approach_date": "1980-06-08",
            "close_approach_date_full": "1980-Jun-08 15:48",
            "epoch_date_close_approach": 329327280000,
            "relative_velocity": {
                "kilometers_per_second": "11.9233421453",
                "kilometers_per_hour": "42924.0317229515",
                "miles_per_hour": "26671.3240447417"
            },
            "miss_distance": {
                "astronomical": "0.1454065901",
                "lunar": "56.5631635489",
                "kilometers": "21752516.162923087",
                "miles": "13516386.7804571206"
            },
            "orbiting_body": "Venus"
        },
        {
            "close_approach_date": "2013-08-30",
            "close_approach_date_full": "2013-Aug-30 13:15",
            "epoch_date_close_approach": 1377868500000,
            "relative_velocity": {
                "kilometers_per_second": "15.5753429037",
                "kilometers_per_hour": "56071.2344532509",
                "miles_per_hour": "34840.4845412436"
            },
            "miss_distance": {
                "astronomical": "0.3239906961",
                "lunar": "126.0323807829",
                "kilometers": "48468318.036377307",
                "miles": "30116816.2924765566"
            },
            "orbiting_body": "Earth"
        },
        {
            "close_approach_date": "2014-11-24",
            "close_approach_date_full": "2014-Nov-24 22:48",
            "epoch_date_close_approach": 1416869280000,
            "relative_velocity": {
                "kilometers_per_second": "13.6639165616",
                "kilometers_per_hour": "49190.0996218439",
                "miles_per_hour": "30564.8149566952"
            },
            "miss_distance": {
                "astronomical": "0.2612719905",
                "lunar": "101.6348043045",
                "kilometers": "39085733.269460235",
                "miles": "24286748.462151843"
            },
            "orbiting_body": "Earth"
        },
        {
            "close_approach_date": "2019-08-30",
            "close_approach_date_full": "2019-Aug-30 02:28",
            "epoch_date_close_approach": 1567132080000,
            "relative_velocity": {
                "kilometers_per_second": "4.6624849735",
                "kilometers_per_hour": "16784.945904596",
                "miles_per_hour": "10429.5126372196"
            },
            "miss_distance": {
                "astronomical": "0.0383789639",
                "lunar": "14.9294169571",
                "kilometers": "5741411.252246893",
                "miles": "3567547.5227694034"
            },
            "orbiting_body": "Earth"
        },
        {
            "close_approach_date": "2024-09-04",
            "close_approach_date_full": "2024-Sep-04 09:28",
            "epoch_date_close_approach": 1725442080000,
            "relative_velocity": {
                "kilometers_per_second": "19.6406331811",
                "kilometers_per_hour": "70706.2794519233",
                "miles_per_hour": "43934.1323627798"
            },
            "miss_distance": {
                "astronomical": "0.4539787717",
                "lunar": "176.5977421913",
                "kilometers": "67914257.271536279",
                "miles": "42199962.6302634902"
            },
            "orbiting_body": "Earth"
        }
    ],
    "orbital_data": {
        "orbit_id": "1",
        "orbit_determination_date": "2019-09-08 15:12:05",
        "first_observation_date": "2019-09-07",
        "last_observation_date": "2019-09-08",
        "data_arc_in_days": 1,
        "observations_used": 12,
        "orbit_uncertainty": "8",
        "minimum_orbit_intersection": ".00621759",
        "jupiter_tisserand_invariant": "6.622",
        "epoch_osculation": "2458734.5",
        "eccentricity": ".2128551459416373",
        "semi_major_axis": ".8952446217383612",
        "inclination": "2.063338185016337",
        "ascending_node_longitude": "321.3254613427234",
        "orbital_period": "309.3933734624316",
        "perihelion_distance": ".7046871971247765",
        "perihelion_argument": "233.4375389570561",
        "aphelion_distance": "1.085802046351946",
        "perihelion_time": "2458616.905151684872",
        "mean_anomaly": "136.8295155118652",
        "mean_motion": "1.163567260575842",
        "equinox": "J2000",
        "orbit_class": {
            "orbit_class_type": "ATE",
            "orbit_class_description": "Near-Earth asteroid orbits similar to that of 2062 Aten",
            "orbit_class_range": "a (semi-major axis) < 1.0 AU; q (perihelion) > 0.983 AU"
        }
    },
    "is_sentry_object": false
}